CSS (TIANHE)            
1 48274U 21035A   24121.38038675  .00044605  00000+0  48281-3 0  9990
2 48274  41.4714  15.1398 0003707 281.7577  78.2846 15.62762411171615
